NAVSTAR 48 (USA 151)    
1 26407U 00040A   26162.31899744  .00000079  00000+0  00000+0 0  9999
2 26407  54.8521 215.3954 0121097 302.4443  64.3462  2.00557597189839
NAVSTAR 51 (USA 166)    
1 27663U 03005A   26162.68081258  .00000081  00000+0  00000+0 0  9994
2 27663  54.8830 215.1878 0147951  53.0769 350.8879  2.00560814171200
NAVSTAR 54 (USA 177)    
1 28190U 04009A   26162.92611682 -.00000037  00000+0  00000+0 0  9994
2 28190  54.8343 275.8999 0115929 172.8401 201.5015  2.00554824162843
NAVSTAR 56 (USA 180)    
1 28474U 04045A   26162.34320756 -.00000066  00000+0  00000+0 0  9996
2 28474  55.1399 325.1314 0169872 316.2822  62.1293  2.00555552158315
NAVSTAR 57 (USA 183)    
1 28874U 05038A   26162.93517096 -.00000034  00000+0  00000+0 0  9998
2 28874  54.8825 273.3896 0127828 296.1108 113.2045  2.00565961151733
INMARSAT 4-F2           
1 28899U 05044A   26162.93675407 -.00000248  00000+0  00000+0 0  9990
2 28899   5.0872  43.7029 0002785  34.4385 302.8595  1.00271178 75465
NAVSTAR 58 (USA 190)    
1 29486U 06042A   26162.26366377  .00000106  00000+0  00000+0 0  9993
2 29486  54.7100 151.5741 0106501  54.2706 128.5486  2.00570153144274
NAVSTAR 59 (USA 192)    
1 29601U 06052A   26161.93672684  .00000078  00000+0  00000+0 0  9995
2 29601  54.9356 214.2541 0085247  90.7995 270.2610  2.00557843143286
NAVSTAR 60 (USA 196)    
1 32260U 07047A   26162.24162698 -.00000032  00000+0  00000+0 0  9990
2 32260  54.0909  80.3107 0166560  87.2611 274.6384  2.00555467136693
COSMOS 2433 [GLONASS-M] 
1 32275U 07052A   26161.34602035 -.00000036  00000+0  00000+0 0  9990
2 32275  65.5811 316.1641 0002223 191.9747 168.0168  2.13104347144910
COSMOS 2432 [GLONASS-M] 
1 32276U 07052B   26162.35423378 -.00000041  00000+0  00000+0 0  9990
2 32276  65.5974 316.2581 0007764 332.8636  24.5023  2.13103380144959
NAVSTAR 61 (USA 199)    
1 32384U 07062A   26162.00193079 -.00000038  00000+0  00000+0 0  9991
2 32384  55.0367 274.4015 0035635 165.0205 149.1612  2.00559715135380
COSMOS 2434 [GLONASS-M] 
1 32393U 07065A   26161.13852979  .00000115  00000+0  00000+0 0  9993
2 32393  64.3174 192.1535 0001092 340.0608 110.6232  2.13101497143625
COSMOS 2436 [GLONASS-M] 
1 32395U 07065C   26162.37661148  .00000121  00000+0  00000+0 0  9995
2 32395  64.3261 192.1838 0017255 354.1299  98.7062  2.13100308143605
NAVSTAR 62 (USA 201)    
1 32711U 08012A   26162.65206230  .00000100  00000+0  00000+0 0  9995
2 32711  54.4966 150.1458 0211174 247.7758 109.9747  2.00572244133640
NAVSTAR 64 (USA 206)    
1 35752U 09043A   26161.38447792 -.00000065  00000+0  00000+0 0  9998
2 35752  56.2061  27.7188 0053698  82.8945  92.1119  2.00554591123228
COSMOS 2456 [GLONASS-M] 
1 36111U 09070A   26162.45253096 -.00000033  00000+0  00000+0 0  9994
2 36111  65.0078  71.1678 0004811 328.5982 208.2544  2.13103889128305
COSMOS 2457 [GLONASS-M] 
1 36112U 09070B   26162.70798699 -.00000033  00000+0  00000+0 0  9996
2 36112  64.9934  71.0034 0002568 125.8504  14.4375  2.13101285128313
COSMOS 2460 [GLONASS-M] 
1 36402U 10007C   26162.99355422 -.00000045  00000+0  00000+0 0  9997
2 36402  65.4237 314.6427 0002108 104.7652 256.5624  2.13101722126623
NAVSTAR 65 (USA 213)    
1 36585U 10022A   26162.53796638  .00000091  00000+0  00000+0 0  9994
2 36585  54.2707 208.7896 0126339  66.1322 340.1606  2.00562117117483
BEIDOU-2 IGSO-1         
1 36828U 10036A   26162.96577620 -.00000029  00000+0  00000+0 0  9996
2 36828  54.3019 163.0075 0059190 225.0550 327.5844  1.00273454 58042
BEIDOU-2 G4             
1 37210U 10057A   26162.98998362 -.00000098  00000+0  00000+0 0  9993
2 37210   3.6326  68.9797 0005056 197.8951 149.8600  1.00271333 57232
BEIDOU-2 IGSO-2         
1 37256U 10068A   26161.68988234 -.00000227  00000+0  00000+0 0  9992
2 37256  47.5603 271.9154 0055523 212.3969 130.7661  1.00285724 56724
BEIDOU-2 IGSO-3         
1 37384U 11013A   26161.71639865 -.00000195  00000+0  00000+0 0  9996
2 37384  62.3981  40.2143 0034353 184.2630  40.3873  1.00268972 55596
GSAT-8                  
1 37605U 11022A   26162.93771917  .00000100  00000+0  00000+0 0  9997
2 37605   2.1168  81.8845 0002325 205.8113   5.2278  1.00271812 53168
BEIDOU-2 IGSO-4         
1 37763U 11038A   26162.96736792  .00000090  00000+0  00000+0 0  9992
2 37763  54.5997 165.7201 0159325 231.3492 304.6757  1.00285662 54593
GSAT0101 (GALILEO-PFM)  
1 37846U 11060A   26160.80941627 -.00000062  00000+0  00000+0 0  9995
2 37846  56.9968 341.9613 0003215  49.6311 310.4133  1.70475644 90995
GSAT0102 (GALILEO-FM2)  
1 37847U 11060B   26158.40220003 -.00000063  00000+0  00000+0 0  9998
2 37847  57.0009 342.0270 0003434  13.7700 354.5257  1.70476015 90968
COSMOS 2476 [GLONASS-M] 
1 37867U 11064A   26161.15145711 -.00000025  00000+0  00000+0 0  9990
2 37867  65.2660  73.1090 0022909 239.3726 287.6651  2.13104012113613
COSMOS 2477 [GLONASS-M] 
1 37868U 11064B   26162.34003948 -.00000030  00000+0  00000+0 0  9994
2 37868  65.2729  73.1484 0020023 240.6132 298.6270  2.13103125113633
COSMOS 2475 [GLONASS-M] 
1 37869U 11064C   26162.40183649 -.00000030  00000+0  00000+0 0  9999
2 37869  65.2798  73.1677 0025684 253.4267 288.3654  2.13102008113645
