OBJECT_NAME,OBJECT_ID,EPOCH,MEAN_MOTION,ECCENTRICITY,INCLINATION,RA_OF_ASC_NODE,ARG_OF_PERICENTER,MEAN_ANOMALY,EPHEMERIS_TYPE,CLASSIFICATION_TYPE,NORAD_CAT_ID,ELEMENT_SET_NO,REV_AT_EPOCH,BSTAR,MEAN_MOTION_DOT,MEAN_MOTION_DDOT
GPS BIIR-5  (PRN 22),2000-040A,2026-06-11T07:39:21.378816,2.00557597,.0121097,54.8521,215.3954,302.4443,64.3462,0,U,26407,999,18983,0,.79E-6,0
GPS BIIR-8  (PRN 16),2003-005A,2026-06-11T16:20:22.206912,2.00560814,.01479518,54.8830,215.1878,53.0769,350.8879,0,U,27663,999,17120,0,.81E-6,0
GPS BIIR-11 (PRN 19),2004-009A,2026-06-11T22:13:36.493248,2.00554824,.01159298,54.8343,275.8999,172.8401,201.5015,0,U,28190,999,16284,0,-.37E-6,0
GPS BIIR-13 (PRN 02),2004-045A,2026-06-11T08:14:13.133184,2.00555552,.0169872,55.1399,325.1314,316.2822,62.1293,0,U,28474,999,15831,0,-.66E-6,0
GPS BIIRM-1 (PRN 17),2005-038A,2026-06-11T22:26:38.770944,2.00565961,.01278281,54.8825,273.3896,296.1108,113.2045,0,U,28874,999,15173,0,-.34E-6,0
INMARSAT 4-F2 (SOUTHPAN/PRN 122),2005-044A,2026-06-11T22:28:55.551648,1.00271178,.00027851,5.0872,43.7029,34.4385,302.8595,0,U,28899,999,7546,0,-.248E-5,0
GPS BIIRM-2 (PRN 31),2006-042A,2026-06-11T06:19:40.549728,2.00570153,.0106501,54.7100,151.5741,54.2706,128.5486,0,U,29486,999,14427,0,.106E-5,0
GPS BIIRM-3 (PRN 12),2006-052A,2026-06-10T22:28:53.198976,2.00557843,.0085247,54.9356,214.2541,90.7995,270.2610,0,U,29601,999,14328,0,.78E-6,0
GPS BIIRM-4 (PRN 15),2007-047A,2026-06-11T05:47:56.571072,2.00555467,.016656,54.0909,80.3107,87.2611,274.6384,0,U,32260,999,13669,0,-.32E-6,0
COSMOS 2433 (720),2007-052A,2026-06-10T08:18:16.158240,2.13104347,.00022232,65.5811,316.1641,191.9747,168.0168,0,U,32275,999,14491,0,-.36E-6,0
COSMOS 2432 (719),2007-052B,2026-06-11T08:30:05.798592,2.13103380,.0007764,65.5974,316.2581,332.8636,24.5023,0,U,32276,999,14495,0,-.41E-6,0
GPS BIIRM-5 (PRN 29),2007-062A,2026-06-11T00:02:46.820256,2.00559715,.00356355,55.0367,274.4015,165.0205,149.1612,0,U,32384,999,13538,0,-.38E-6,0
COSMOS 2434 (721),2007-065A,2026-06-10T03:19:28.973856,2.13101497,.00010921,64.3174,192.1535,340.0608,110.6232,0,U,32393,999,14362,0,.115E-5,0
COSMOS 2436 (723),2007-065C,2026-06-11T09:02:19.231872,2.13100308,.0017255,64.3261,192.1838,354.1299,98.7062,0,U,32395,999,14360,0,.121E-5,0
GPS BIIRM-6 (PRN 07),2008-012A,2026-06-11T15:38:58.182720,2.00572244,.02111748,54.4966,150.1458,247.7758,109.9747,0,U,32711,999,13364,0,.1E-5,0
GPS BIIRM-8 (PRN 05),2009-043A,2026-06-10T09:13:38.892288,2.00554591,.0053698,56.2061,27.7188,82.8945,92.1119,0,U,35752,999,12322,0,-.65E-6,0
COSMOS 2456 (730),2009-070A,2026-06-11T10:51:38.674944,2.13103889,.00048116,65.0078,71.1678,328.5982,208.2544,0,U,36111,999,12830,0,-.33E-6,0
COSMOS 2457 (733),2009-070B,2026-06-11T16:59:30.075936,2.13101285,.00025688,64.9934,71.0034,125.8504,14.4375,0,U,36112,999,12831,0,-.33E-6,0
COSMOS 2460 (732),2010-007C,2026-06-11T23:50:43.084608,2.13101722,.00021089,65.4237,314.6427,104.7652,256.5624,0,U,36402,999,12662,0,-.45E-6,0
GPS BIIF-1  (PRN 25),2010-022A,2026-06-11T12:54:40.295232,2.00562117,.0126339,54.2707,208.7896,66.1322,340.1606,0,U,36585,999,11748,0,.91E-6,0
BEIDOU-2 IGSO-1 (C06),2010-036A,2026-06-11T23:10:43.063680,1.00273454,.00591902,54.3019,163.0075,225.0550,327.5844,0,U,36828,999,5804,0,-.29E-6,0
BEIDOU-2 G4 (C04),2010-057A,2026-06-11T23:45:34.584768,1.00271333,.00050563,3.6326,68.9797,197.8951,149.8600,0,U,37210,999,5723,0,-.98E-6,0
BEIDOU-2 IGSO-2 (C07),2010-068A,2026-06-10T16:33:25.834176,1.00285724,.00555234,47.5603,271.9154,212.3969,130.7661,0,U,37256,999,5672,0,-.227E-5,0
BEIDOU-2 IGSO-3 (C08),2011-013A,2026-06-10T17:11:36.843360,1.00268972,.00343535,62.3981,40.2143,184.2630,40.3873,0,U,37384,999,5559,0,-.195E-5,0
GSAT-8 (GAGAN/PRN 127),2011-022A,2026-06-11T22:30:18.936288,1.00271812,.00023255,2.1168,81.8845,205.8113,5.2278,0,U,37605,999,5316,0,.1E-5,0
BEIDOU-2 IGSO-4 (C09),2011-038A,2026-06-11T23:13:00.588288,1.00285662,.01593255,54.5997,165.7201,231.3492,304.6757,0,U,37763,999,5459,0,.9E-6,0
GSAT0101 (GALILEO-PFM),2011-060A,2026-06-09T19:25:33.565728,1.70475644,.00032151,56.9968,341.9613,49.6311,310.4133,0,U,37846,999,9099,0,-.62E-6,0
GSAT0102 (GALILEO-FM2),2011-060B,2026-06-07T09:39:10.082592,1.70476015,.00034343,57.0009,342.0270,13.7700,354.5257,0,U,37847,999,9096,0,-.63E-6,0
COSMOS 2476 (744),2011-064A,2026-06-10T03:38:05.894304,2.13104012,.00229093,65.2660,73.1090,239.3726,287.6651,0,U,37867,999,11361,0,-.25E-6,0
COSMOS 2477 (745),2011-064B,2026-06-11T08:09:39.411072,2.13103125,.0020023,65.2729,73.1484,240.6132,298.6270,0,U,37868,999,11363,0,-.3E-6,0
COSMOS 2475 (743),2011-064C,2026-06-11T09:38:38.672736,2.13102008,.0025684,65.2798,73.1677,253.4267,288.3654,0,U,37869,999,11364,0,-.3E-6,0
